00001    3.34  0.12 K13B4  10.55761   72.29213   80.32762   10.59398  0.0757973  0.21415869   2.7668073  0 MPO286777  6502 105 1802-2014 0.82 M-v 30h MPCLINUX   0000      (1) Ceres              20140307
